[{"OBJECT_NAME":"OBJECT K","OBJECT_ID":"2024-092K","EPOCH":"2026-03-09T22:27:09.905184","MEAN_MOTION":15.32834875,"ECCENTRICITY":0.00087198,"INCLINATION":97.6413,"RA_OF_ASC_NODE":198.1023,"ARG_OF_PERICENTER":142.4952,"MEAN_ANOMALY":217.69,"EPHEMERIS_TYPE":0,"CLASSIFICATION_TYPE":"U","NORAD_CAT_ID":59809,"ELEMENT_SET_NO":999,"REV_AT_EPOCH":10001,"BSTAR":0.0007267688,"MEAN_MOTION_DOT":0.00023035,"MEAN_MOTION_DDOT":0},{"OBJECT_NAME":"STARLINK-34702","OBJECT_ID":"2025-157E","EPOCH":"2026-03-09T22:34:31.401408","MEAN_MOTION":15.302022,"ECCENTRICITY":0.0001674,"INCLINATION":53.1594,"RA_OF_ASC_NODE":344.4031,"ARG_OF_PERICENTER":134.9591,"MEAN_ANOMALY":225.1545,"EPHEMERIS_TYPE":0,"CLASSIFICATION_TYPE":"U","NORAD_CAT_ID":64908,"ELEMENT_SET_NO":999,"REV_AT_EPOCH":3616,"BSTAR":0.0016249545,"MEAN_MOTION_DOT":0.00048083,"MEAN_MOTION_DDOT":0}]
